[Satellite]
VERSION=1.1
NAME=GLOBALSTAR M077
NICKNAME=GLOBALSTAR M077
TLE1=1 37191U 10054D   17186.29246247 -.00000100  00000-0  19174-4 0  9998
TLE2=2 37191  52.0081 295.4507 0000764 100.8212 285.2938 12.62268579310696
